OBJECT_NAME,OBJECT_ID,EPOCH,MEAN_MOTION,ECCENTRICITY,INCLINATION,RA_OF_ASC_NODE,ARG_OF_PERICENTER,MEAN_ANOMALY,EPHEMERIS_TYPE,CLASSIFICATION_TYPE,NORAD_CAT_ID,ELEMENT_SET_NO,REV_AT_EPOCH,BSTAR,MEAN_MOTION_DOT,MEAN_MOTION_DDOT
KUIPER-00513,2026-140G,2026-07-14T05:24:57.627072,15.38144143,.0007568,51.8803,267.9451,335.3212,24.7412,0,U,69598,999,539,.34358E-3,.12743E-3,0
KUIPER-00516,2026-140H,2026-07-13T12:26:51.443808,15.37574352,.0006953,51.8792,271.4472,348.9117,11.1715,0,U,69599,999,528,.30577E-3,.11081E-3,0
KUIPER-00517,2026-140J,2026-07-13T11:54:57.842784,15.38808019,.0010804,51.8779,271.3024,285.7132,74.2664,0,U,69600,999,528,.54021519E-3,.20755E-3,0
KUIPER-00520,2026-140K,2026-07-13T12:28:11.801856,15.37626046,.0006927,51.8816,271.4642,349.6934,10.3909,0,U,69601,999,528,.31946E-3,.11615E-3,0
KUIPER-00522,2026-140L,2026-07-14T04:58:52.059072,15.38651161,.0012356,51.8788,267.8255,260.5996,99.3595,0,U,69602,999,539,.53672E-3,.20523E-3,0
KUIPER-00528,2026-140M,2026-07-13T12:31:49.853856,15.37479349,.0005804,51.8786,271.4722,356.5251,3.5694,0,U,69603,999,528,.35179E-3,.12768E-3,0
KUIPER-00532,2026-140N,2026-07-13T11:12:57.353472,15.36572721,.00057092,51.8801,271.8505,25.8262,334.3009,0,U,69604,999,527,-.19588602E-4,-.1101E-4,0
KUIPER-00533,2026-140P,2026-07-14T05:19:20.951328,15.38262535,.0008343,51.8783,267.9164,325.4849,34.5596,0,U,69605,999,539,.37596E-3,.14042E-3,0
KUIPER-00534,2026-140Q,2026-07-14T04:51:35.002080,15.38718910,.001305,51.8819,267.8012,266.2254,93.7241,0,U,69606,999,539,.5342E-3,.20476E-3,0
KUIPER-00537,2026-140R,2026-07-13T10:10:01.768512,15.34217577,.00096535,51.8797,272.3084,48.0807,312.1001,0,U,69607,999,526,.65641109E-3,.21784E-3,0
KUIPER-00538,2026-140S,2026-07-13T12:24:45.527040,15.37710765,.000669,51.8809,271.4458,337.5017,22.5675,0,U,69608,999,528,.30901E-3,.11253E-3,0
KUIPER-00540,2026-140T,2026-07-13T12:40:43.686624,15.36946230,.000657,51.8824,271.5191,18.6621,341.4606,0,U,69609,999,528,.34891E-3,.1244E-3,0
KUIPER-00541,2026-140U,2026-07-14T05:18:57.461760,15.38413224,.0006154,51.8784,267.9190,318.7801,41.2721,0,U,69610,999,539,.9753E-3,.37343E-3,0
KUIPER-00542,2026-140V,2026-07-14T05:17:06.665856,15.38281119,.000718,51.8777,267.9043,301.9108,58.1180,0,U,69611,999,539,.55894E-3,.21097E-3,0
KUIPER-00543,2026-140W,2026-07-13T11:13:27.480288,15.36825871,.0007255,51.8799,271.8471,31.7570,328.3853,0,U,69612,999,527,.49294994E-3,.17683E-3,0
KUIPER-00544,2026-140X,2026-07-13T10:40:45.159168,15.38153379,.00066107,51.8785,271.7055,313.6004,46.4434,0,U,69613,999,527,.42036075E-3,.15688E-3,0
KUIPER-00546,2026-140Y,2026-07-13T11:43:33.415680,15.38855435,.001454,51.8793,271.2530,256.4285,103.5083,0,U,69614,999,528,.45921075E-3,.1763E-3,0
KUIPER-00547,2026-140Z,2026-07-14T05:14:49.953408,15.37913274,.0010785,51.8803,267.9048,287.4229,72.5578,0,U,69615,999,539,.4271E-3,.15837E-3,0
KUIPER-00549,2026-140AA,2026-07-13T12:34:00.791328,15.37317461,.0008166,51.8795,271.4828,9.6406,350.4736,0,U,69616,999,528,.30825E-3,.11082E-3,0
KUIPER-00550,2026-140AB,2026-07-14T04:00:01.998720,15.32061507,.000766,51.8785,268.8826,60.0102,9.9397,0,U,69617,999,462,.12758E-2,.39952E-3,0
KUIPER-00551,2026-140AC,2026-07-14T05:03:13.971168,15.38355929,.0012709,51.8767,267.8402,265.4907,94.4628,0,U,69618,999,539,.57681E-3,.21879E-3,0
KUIPER-00554,2026-140AD,2026-07-14T05:12:13.669632,15.37972939,.0011192,51.8770,267.8833,288.4795,71.4976,0,U,69619,999,539,.41331E-3,.15344E-3,0
KUIPER-00555,2026-140AE,2026-07-14T05:08:20.782752,15.37946578,.0011295,51.8806,267.8756,277.1506,82.8197,0,U,69620,999,539,.4509E-3,.16765E-3,0
KUIPER-00556,2026-140AF,2026-07-12T20:22:38.974944,15.37854962,.001062,51.8804,274.4699,249.9236,110.0608,0,U,69621,999,518,-.48964841E-2,-.181525E-2,0
KUIPER-00557,2026-140AG,2026-07-14T05:20:16.064160,15.37511985,.0009715,51.8797,267.9276,296.9305,63.0689,0,U,69622,999,539,.41592E-3,.15202E-3,0
KUIPER-00560,2026-140AH,2026-07-14T05:06:59.076864,15.38315817,.0011963,51.8795,267.8633,265.8005,94.1615,0,U,69623,999,539,.55635E-3,.21051E-3,0
KUIPER-00561,2026-140AJ,2026-07-11T17:56:40.634592,15.38107852,.00092458,51.8826,279.8412,285.6749,74.3218,0,U,69624,999,501,-.15960765E-1,-.566727E-2,0
KUIPER-00564,2026-140AK,2026-07-13T10:32:13.935552,15.37234658,.0009106,51.8803,271.6737,291.5135,68.4880,0,U,69625,999,527,-.74902183E-3,-.28077E-3,0
KUIPER-00567,2026-140AL,2026-07-14T05:04:10.590816,15.38241925,.0012006,51.8806,267.8474,273.4082,86.5532,0,U,69626,999,539,.69038E-3,.26174E-3,0
KUIPER-00573,2026-140AM,2026-07-14T05:25:43.341312,15.37463875,.0009278,51.8773,267.9450,282.9594,77.0356,0,U,69627,999,539,.36645E-3,.13321E-3,0
