KUIPER-00513            
1 69598U 26140G   26195.22566698  .00012743  00000+0  34358-3 0  9999
2 69598  51.8803 267.9451 0007568 335.3212  24.7412 15.38144143  5394
KUIPER-00516            
1 69599U 26140H   26194.51865097  .00011081  00000+0  30577-3 0  9999
2 69599  51.8792 271.4472 0006953 348.9117  11.1715 15.37574352  5288
KUIPER-00517            
1 69600U 26140J   26194.49650281  .00020755  00000+0  54022-3 0  9995
2 69600  51.8779 271.3024 0010804 285.7132  74.2664 15.38808019  5287
KUIPER-00520            
1 69601U 26140K   26194.51958104  .00011615  00000+0  31946-3 0  9999
2 69601  51.8816 271.4642 0006927 349.6934  10.3909 15.37626046  5288
KUIPER-00522            
1 69602U 26140L   26195.20754698  .00020523  00000+0  53672-3 0  9997
2 69602  51.8788 267.8255 0012356 260.5996  99.3595 15.38651161  5395
KUIPER-00528            
1 69603U 26140M   26194.52210479  .00012768  00000+0  35179-3 0  9990
2 69603  51.8786 271.4722 0005804 356.5251   3.5694 15.37479349  5284
KUIPER-00532            
1 69604U 26140N   26194.46733048 -.00001101  00000+0 -19589-4 0  9995
2 69604  51.8801 271.8505 0005709  25.8262 334.3009 15.36572721  5279
KUIPER-00533            
1 69605U 26140P   26195.22177027  .00014042  00000+0  37596-3 0  9993
2 69605  51.8783 267.9164 0008343 325.4849  34.5596 15.38262535  5397
KUIPER-00534            
1 69606U 26140Q   26195.20248845  .00020476  00000+0  53420-3 0  9991
2 69606  51.8819 267.8012 0013050 266.2254  93.7241 15.38718910  5399
KUIPER-00537            
1 69607U 26140R   26194.42363158  .00021784  00000+0  65641-3 0  9991
2 69607  51.8797 272.3084 0009653  48.0807 312.1001 15.34217577  5266
KUIPER-00538            
1 69608U 26140S   26194.51719360  .00011253  00000+0  30901-3 0  9993
2 69608  51.8809 271.4458 0006690 337.5017  22.5675 15.37710765  5284
KUIPER-00540            
1 69609U 26140T   26194.52828341  .00012440  00000+0  34891-3 0  9996
2 69609  51.8824 271.5191 0006570  18.6621 341.4606 15.36946230  5286
KUIPER-00541            
1 69610U 26140U   26195.22149840  .00037343  00000+0  97530-3 0  9994
2 69610  51.8784 267.9190 0006154 318.7801  41.2721 15.38413224  5392
KUIPER-00542            
1 69611U 26140V   26195.22021604  .00021097  00000+0  55894-3 0  9998
2 69611  51.8777 267.9043 0007180 301.9108  58.1180 15.38281119  5398
KUIPER-00543            
1 69612U 26140W   26194.46767917  .00017683  00000+0  49295-3 0  9992
2 69612  51.8799 271.8471 0007255  31.7570 328.3853 15.36825871  5279
KUIPER-00544            
1 69613U 26140X   26194.44496712  .00015688  00000+0  42036-3 0  9992
2 69613  51.8785 271.7055 0006610 313.6004  46.4434 15.38153379  5272
KUIPER-00546            
1 69614U 26140Y   26194.48858120  .00017630  00000+0  45921-3 0  9997
2 69614  51.8793 271.2530 0014540 256.4285 103.5083 15.38855435  5289
KUIPER-00547            
1 69615U 26140Z   26195.21863372  .00015837  00000+0  42710-3 0  9995
2 69615  51.8803 267.9048 0010785 287.4229  72.5578 15.37913274  5398
KUIPER-00549            
1 69616U 26140AA  26194.52362027  .00011082  00000+0  30825-3 0  9992
2 69616  51.8795 271.4828 0008166   9.6406 350.4736 15.37317461  5284
KUIPER-00550            
1 69617U 26140AB  26195.16668980  .00039952  00000+0  12758-2 0  9991
2 69617  51.8785 268.8826 0007660  60.0102   9.9397 15.32061507  4622
KUIPER-00551            
1 69618U 26140AC  26195.21057837  .00021879  00000+0  57681-3 0  9995
2 69618  51.8767 267.8402 0012709 265.4907  94.4628 15.38355929  5397
KUIPER-00554            
1 69619U 26140AD  26195.21682488  .00015344  00000+0  41331-3 0  9997
2 69619  51.8770 267.8833 0011192 288.4795  71.4976 15.37972939  5391
KUIPER-00555            
1 69620U 26140AE  26195.21412943  .00016765  00000+0  45090-3 0  9990
2 69620  51.8806 267.8756 0011295 277.1506  82.8197 15.37946578  5397
KUIPER-00556            
1 69621U 26140AF  26193.84906221 -.00181525  00000+0 -48965-2 0  9997
2 69621  51.8804 274.4699 0010620 249.9236 110.0608 15.37854962  5187
KUIPER-00557            
1 69622U 26140AG  26195.22240815  .00015202  00000+0  41592-3 0  9998
2 69622  51.8797 267.9276 0009715 296.9305  63.0689 15.37511985  5393
KUIPER-00560            
1 69623U 26140AH  26195.21318376  .00021051  00000+0  55635-3 0  9998
2 69623  51.8795 267.8633 0011963 265.8005  94.1615 15.38315817  5399
KUIPER-00561            
1 69624U 26140AJ  26192.74769253 -.00566727  00000+0 -15961-1 0  9990
2 69624  51.8826 279.8412 0009245 285.6749  74.3218 15.38107852  5014
KUIPER-00564            
1 69625U 26140AK  26194.43905018 -.00028077  00000+0 -74902-3 0  9993
2 69625  51.8803 271.6737 0009106 291.5135  68.4880 15.37234658  5272
KUIPER-00567            
1 69626U 26140AL  26195.21123369  .00026174  00000+0  69038-3 0  9990
2 69626  51.8806 267.8474 0012006 273.4082  86.5532 15.38241925  5398
KUIPER-00573            
1 69627U 26140AM  26195.22619608  .00013321  00000+0  36645-3 0  9996
2 69627  51.8773 267.9450 0009278 282.9594  77.0356 15.37463875  5395
